COSMOS 1933             
1 18958U 88020A   21273.88204745  .00001050  00000-0  73916-4 0  9998
2 18958  82.5323  31.2311 0011306 357.6623   2.4549 15.04013942826953
SL-3 R/B                
1 19046U 88032B   21274.46188756  .00000087  00000-0  10724-4 0  9995
2 19046  97.3893 280.1353 0038691  43.9480 316.4811 15.03023978807993
SL-16 R/B               
1 19120U 88039B   21273.65714256 -.00000117  00000-0 -32486-4 0  9990
2 19120  71.0116 254.9483 0023925 302.9459  56.9365 14.19224492728637
COSMOS 1953             
1 19210U 88050A   21273.54604614  .00000559  00000-0  35964-4 0  9999
2 19210  82.5163 313.3922 0011884 315.6368  44.3907 15.06397971792426
SL-8 R/B                
1 19257U 88053B   21273.63186201  .00000028  00000-0  18160-4 0  9990
2 19257  74.0489 216.4051 0019158  78.4282  94.1887 14.37531069743563
COSMOS 1975             
1 19573U 88093A   21274.46212549  .00001743  00000-0  11972-3 0  9990
2 19573  82.5167 267.8181 0014299   3.3627 356.7693 15.05291218795492
SL-14 R/B               
1 19574U 88093B   21273.59477067  .00000135  00000-0  13525-4 0  9993
2 19574  82.5295 120.4157 0021461 355.8206  57.4549 14.83387331760561
SL-16 R/B               
1 19650U 88102B   21274.10138280  .00000231  00000-0  14185-3 0  9997
2 19650  71.0001 320.2273 0015920 311.9258  48.0506 14.15808959697776
INTERCOSMOS 24          
1 20261U 89080A   21273.50127315  .00000240  00000-0  61934-4 0  9998
2 20261  82.5984  76.0736 1203267  83.1407 290.4779 12.56213506463015
SL-14 R/B               
1 20262U 89080C   21273.64487451  .00000059  00000-0  17585-4 0  9995
2 20262  82.5920 132.7620 1235854 285.0561  61.7259 12.48983451457254
DELTA 2 R/B(1)          
1 20303U 89085B   21273.48953773  .00005326  00000-0  16095-3 0  9999
2 20303  35.6429 292.6379 0087807  42.5566 318.1927 15.29972310740028
DELTA 1 R/B             
1 20323U 89089B   21274.51218750  .00000128  00000-0  42175-4 0  9993
2 20323  97.1178 352.2789 0071532 188.1432 171.8609 14.48420984681580
ARIANE 40 R/B           
1 20443U 90005H   21274.12187567  .00000026  00000-0  23140-4 0  9992
2 20443  98.5189 339.5823 0010751  26.1493 334.0235 14.38145099660025
DELTA 2 R/B(1)          
1 20453U 90008B   21274.49731830  .00004304  00000-0  23277-3 0  9997
2 20453  35.6276 356.0366 0276387 280.8735  76.0995 14.87035572681317
COSMOS 2058             
1 20465U 90010A   21274.46098162  .00000640  00000-0  51369-4 0  9997
2 20465  82.4921 180.0291 0016756  56.0419 304.2394 14.98292819719955
SL-14 R/B               
1 20466U 90010B   21273.72389480  .00000127  00000-0  13239-4 0  9996
2 20466  82.5058 346.6602 0019334 229.8297 130.1225 14.81439917709416
SL-14 R/B               
1 20511U 90018B   21273.81849295  .00000134  00000-0  14589-4 0  9997
2 20511  82.5202 295.0524 0017924  20.2035 152.5659 14.80093971703782
HST                     
1 20580U 90037B   21273.81193127  .00001057  00000-0  52853-4 0  9991
2 20580  28.4698  87.8983 0002801 115.5815 264.4960 15.09755843527196
SL-16 R/B               
1 20625U 90046B   21273.58040115 -.00000096  00000-0 -24921-4 0  9992
2 20625  70.9964 101.4076 0016401 250.6182 109.3167 14.14669216619101
COSMOS 2084             
1 20663U 90055A   21274.49217087  .00000245  00000-0  40464-4 0  9993
2 20663  62.7953  35.1416 0085970  21.1114 339.3493 14.92318430693658
SL-6 R/B(2)             
1 20666U 90055D   21274.46622877  .00000292  00000-0  43203-4 0  9996
2 20666  62.7844 310.4555 0110673  46.3760 314.6448 14.92568200695063
SL-8 R/B                
1 20775U 90078B   21274.29557997  .00004412  00000-0  21113-3 0  9996
2 20775  82.9290 197.7723 0565292 173.8494 187.0050 14.36435451573275
SL-8 R/B                
1 21088U 91006B   21273.54164574  .00000147  00000-0  13346-3 0  9998
2 21088  82.9390 295.7109 0021213 253.9360 216.7534 13.77180053540914
OKEAN-3                 
1 21397U 91039A   21273.58785543  .00000566  00000-0  51583-4 0  9997
2 21397  82.5187  89.7419 0018689  39.8970 320.3619 14.93167829622397
COSMOS 2151             
1 21422U 91042A   21274.19371417  .00000405  00000-0  37050-4 0  9994
2 21422  82.5035 194.7133 0015690  98.8656 261.4341 14.92306494642169
SL-14 R/B               
1 21423U 91042B   21273.54012744  .00000121  00000-0  12948-4 0  9992
2 21423  82.4913 297.5385 0018219 154.7604 205.4504 14.79842867634221
ERS-1                   
1 21574U 91050A   21273.50825456  .00000089  00000-0  44231-4 0  9999
2 21574  98.6595 234.7229 0032542 331.8686  28.0741 14.37817322582660
ARIANE 40 R/B           
1 21610U 91050F   21274.47600475  .00000066  00000-0  33955-4 0  9995
2 21610  98.4143 343.6075 0002060 290.9202  79.9920 14.40966621585813
INTERCOSMOS 25          
1 21819U 91086A   21273.52617063  .00001800  00000-0  36159-3 0  9996
2 21819  82.5915 204.5737 1516096 350.2582   7.1870 12.05361692300915
SL-8 R/B                
1 21876U 92008B   21273.45042765  .00000025  00000-0  10568-4 0  9992
2 21876  82.9301  33.0799 0034304 343.8813  82.0100 13.75681648486495
SL-8 R/B                
1 21938U 92020B   21273.53080934 -.00000070  00000-0 -88762-4 0  9997
2 21938  82.9256 277.5583 0030148 140.0337 333.4415 13.75288357478289
COSMOS 2219             
1 22219U 92076A   21274.40689853 -.00000301  00000-0 -13410-3 0  9997
2 22219  71.0600 163.8841 0017209 163.4406 196.7282 14.13665786489694
SL-16 R/B               
1 22220U 92076B   21273.54932618 -.00000266  00000-0 -10941-3 0  9999
2 22220  71.0030   1.9944 0011321  37.1906  54.4254 14.16474805492247
COSMOS 2221             
1 22236U 92080A   21274.34491050  .00000491  00000-0  50585-4 0  9997
2 22236  82.5114  18.6497 0016289 193.4919 166.5865 14.88109125560349
SL-16 R/B               
1 22285U 92093B   21274.09485227  .00000272  00000-0  16474-3 0  9991
2 22285  71.0217 165.1405 0006378 261.8805  98.1594 14.15065173484190
COSMOS 2228             
1 22286U 92094A   21274.42903274  .00000428  00000-0  43421-4 0  9993
2 22286  82.5216 335.3806 0019969 319.8023  40.1717 14.88333446555564
SL-16 R/B               
1 22566U 93016B   21273.86625001 -.00000296  00000-0 -12799-3 0  9993
2 22566  71.0106  18.3016 0012902 270.5122  89.4523 14.14977043472880
COSMOS 2242             
1 22626U 93024A   21274.52081654  .00000405  00000-0  41212-4 0  9996
2 22626  82.5254   3.6127 0017790 320.0567  39.9341 14.88182822539215
SL-16 R/B               
1 22803U 93059B   21274.09962720  .00000001  00000-0  24432-4 0  9992
2 22803  70.9908 187.4047 0016556 166.7664 193.3898 14.16843236450222
ARIANE 40 R/B           
1 22830U 93061H   21273.43756676  .00000009  00000-0  20281-4 0  9999
2 22830  98.7029 331.2944 0011301  29.1562 331.0250 14.31491783462062
COSMOS 2278             
1 23087U 94023A   21273.53385442  .00000286  00000-0  17552-3 0  9996
2 23087  71.0552 325.0856 0009780 332.2008  27.8591 14.13838877415634
SL-16 R/B               
1 23088U 94023B   21274.10536751 -.00000248  00000-0 -10414-3 0  9992
2 23088  70.9994 233.2438 0005715 254.0417 106.0076 14.14697995417149
SL-16 R/B               
1 23343U 94074B   21274.18648531  .00000099  00000-0  21359-4 0  9993
2 23343  97.9348 327.1429 0008215  76.7310 349.8572 14.76903574448106
SL-16 R/B               
1 23405U 94077B   21274.43203573  .00000261  00000-0  15853-3 0  9998
2 23405  70.9831 160.1551 0000732 153.8435 206.2725 14.15245079387240
ERS-2                   
1 23560U 95021A   21273.50984320  .00002579  00000-0  10937-3 0  9995
2 23560  98.5347 138.1987 0003940  28.1223 332.0223 15.24259027413724
ARIANE 40+ R/B          
1 23561U 95021B   21274.43430891  .00000078  00000-0  40681-4 0  9990
2 23561  98.6637 325.2069 0005934 300.5547  70.2023 14.38048235386481
SL-16 R/B               
1 23705U 95058B   21273.50328126  .00000069  00000-0  59848-4 0  9999
2 23705  71.0249 342.7182 0010370  65.5734 294.6470 14.15156954338771
SL-16 R/B               
1 24298U 96051B   21274.53088232 -.00000156  00000-0 -58135-4 0  9993
2 24298  70.8266 357.1774 0014980   2.8463 357.2740 14.12414404293136
ORBVIEW 2 (SEASTAR)     
1 24883U 97037A   21273.32808461  .00000098  00000-0  51488-4 0  9995
2 24883  98.6536  31.3275 0003003 139.4026 220.7383 14.33637159276031
SL-16 R/B               
1 25400U 98043G   21273.86118460  .00000002  00000-0  19234-4 0  9999
2 25400  98.6444 208.1771 0010780  48.8397 311.3711 14.25483520208268
SL-16 R/B               
1 25407U 98045B   21273.73393666  .00000038  00000-0  43706-4 0  9997
2 25407  71.0141 349.2267 0008818 322.5418  37.5089 14.15844937197912
ISS (ZARYA)             
1 25544U 98067A   21274.48745370  .00005263  00000-0  10402-3 0  9990
2 25544  51.6451 177.1253 0004230  47.7147 303.2719 15.48889955305060
CZ-4B R/B               
1 25732U 99025C   21273.36334315  .00000003  00000-0  23324-4 0  9998
2 25732  98.8933 310.0072 0036532 311.4411  59.0324 14.17700217158409
OKEAN-O                 
1 25860U 99039A   21273.35124229  .00000115  00000-0  23919-4 0  9999
2 25860  98.1753 305.4920 0001569 111.3470 248.7907 14.76764171194866
SL-16 R/B               
1 25861U 99039B   21273.80525326  .00000116  00000-0  23235-4 0  9995
2 25861  98.2023 291.2044 0016947  87.6180  85.2235 14.78666116197263
DELTA 2 R/B             
1 25876U 99041E   21274.42825133  .00000326  00000-0  94444-4 0  9995
2 25876  51.7668 250.8142 0530652 277.8849  76.2190 14.04645100134830
HELIOS 1B               
1 25977U 99064A   21274.45711077  .00000173  00000-0  28672-4 0  9996
2 25977  98.3227  93.1949 0000053 138.9091 221.2125 14.82586878176205
TERRA                   
1 25994U 99068A   21274.52591619  .00000106  00000-0  33512-4 0  9990
2 25994  98.1678 346.9638 0001354  91.7855 325.2010 14.57132745158913
SL-16 R/B               
1 26070U 00006B   21274.38825441 -.00000107  00000-0 -30543-4 0  9991
2 26070  70.9999 263.6290 0014838 133.5432 226.6926 14.15468643119234
MTI                     
1 26102U 00014A   21274.36873172  .00025038  00000-0  26592-3 0  9994
2 26102  97.4558 186.6909 0003438 291.5505  68.5381 15.64050749197880
